[{"OBJECT_NAME":"STARLINK-32712","OBJECT_ID":"2024-251B","EPOCH":"2026-03-09T22:20:57.193728","MEAN_MOTION":15.30216568,"ECCENTRICITY":0.00022377,"INCLINATION":53.1619,"RA_OF_ASC_NODE":334.3063,"ARG_OF_PERICENTER":150.1412,"MEAN_ANOMALY":209.9717,"EPHEMERIS_TYPE":0,"CLASSIFICATION_TYPE":"U","NORAD_CAT_ID":62433,"ELEMENT_SET_NO":999,"REV_AT_EPOCH":6798,"BSTAR":0.0013565253,"MEAN_MOTION_DOT":0.00040056,"MEAN_MOTION_DDOT":0},{"OBJECT_NAME":"OBJECT P","OBJECT_ID":"2018-099P","EPOCH":"2026-03-09T16:35:55.790016","MEAN_MOTION":15.30834106,"ECCENTRICITY":0.00076856,"INCLINATION":97.4366,"RA_OF_ASC_NODE":131.9195,"ARG_OF_PERICENTER":276.7627,"MEAN_ANOMALY":83.2739,"EPHEMERIS_TYPE":0,"CLASSIFICATION_TYPE":"U","NORAD_CAT_ID":43771,"ELEMENT_SET_NO":999,"REV_AT_EPOCH":39830,"BSTAR":0.00063632878,"MEAN_MOTION_DOT":0.00018926,"MEAN_MOTION_DDOT":0}]
